start=new Date('2022-12-17T00:00:00.000Z').valueOf();
sats=[{"GP_ID":"220660397","OBJECT_ID":"2020-073AJ","TLE_LINE2":"2 46702  53.0528 113.9084 0001492  62.4710 297.6431 15.06390588119723","REV_AT_EPOCH":"11972","CENTER_NAME":"EARTH","OBJECT_NAME":"STARLINK-1802","ARG_OF_PERICENTER":"62.4710","RA_OF_ASC_NODE":"113.9084","CLASSIFICATION_TYPE":"U","ELEMENT_SET_NO":"999","MEAN_MOTION_DDOT":"0.0000000000000","SEMIMAJOR_AXIS":"6925.377","MEAN_MOTION_DOT":"-0.00002387","OBJECT_TYPE":"PAYLOAD","EPHEMERIS_TYPE":"0","PERIAPSIS":"546.209","REF_FRAME":"TEME","FILE":"3705029","MEAN_ANOMALY":"297.6431","SITE":"AFETR","NORAD_CAT_ID":"46702","TIME_SYSTEM":"UTC","RCS_SIZE":"LARGE","EPOCH":"2022-12-16T18:56:14.003808","MEAN_MOTION":"15.06390588","COUNTRY_CODE":"US","INCLINATION":"53.0528","APOAPSIS":"548.276","MEAN_ELEMENT_THEORY":"SGP4","LAUNCH_DATE":"2020-10-18","TLE_LINE1":"1 46702U 20073AJ  22350.78905097 -.00002387  00000-0 -14146-3 0  9999","BSTAR":"-0.00014146000000","ECCENTRICITY":"0.00014920","DECAY_DATE":null,"PERIOD":"95.593"},{"FILE":"3705029","REF_FRAME":"TEME","PERIAPSIS":"546.192","EPHEMERIS_TYPE":"0","OBJECT_TYPE":"PAYLOAD","MEAN_MOTION_DOT":"-0.00002040","SEMIMAJOR_AXIS":"6925.358","MEAN_MOTION_DDOT":"0.0000000000000","ELEMENT_SET_NO":"999","CLASSIFICATION_TYPE":"U","RA_OF_ASC_NODE":"134.3608","ARG_OF_PERICENTER":"56.7797","OBJECT_NAME":"STARLINK-1803","CENTER_NAME":"EARTH","REV_AT_EPOCH":"11942","TLE_LINE2":"2 46703  53.0532 134.3608 0001488  56.7797 303.3335 15.06397046119425","GP_ID":"220660149","OBJECT_ID":"2020-073AK","PERIOD":"95.592","DECAY_DATE":null,"ECCENTRICITY":"0.00014880","BSTAR":"-0.00011809000000","TLE_LINE1":"1 46703U 20073AK  22350.68767785 -.00002040  00000-0 -11809-3 0  9998","LAUNCH_DATE":"2020-10-18","MEAN_ELEMENT_THEORY":"SGP4","APOAPSIS":"548.253","INCLINATION":"53.0532","COUNTRY_CODE":"US","MEAN_MOTION":"15.06397046","EPOCH":"2022-12-16T16:30:15.366240","RCS_SIZE":"LARGE","SITE":"AFETR","MEAN_ANOMALY":"303.3335","NORAD_CAT_ID":"46703","TIME_SYSTEM":"UTC"},{"EPOCH":"2022-12-16T17:36:37.122336","NORAD_CAT_ID":"46704","SITE":"AFETR","MEAN_ANOMALY":"317.6803","TIME_SYSTEM":"UTC","RCS_SIZE":"LARGE","COUNTRY_CODE":"US","MEAN_MOTION":"15.06397909","MEAN_ELEMENT_THEORY":"SGP4","LAUNCH_DATE":"2020-10-18","APOAPSIS":"548.654","INCLINATION":"53.0554","PERIOD":"95.592","DECAY_DATE":null,"BSTAR":"0.00008417900000","ECCENTRICITY":"0.00020700","TLE_LINE1":"1 46704U 20073AL  22350.73376299  .00000972  00000-0  84179-4 0  9992","ARG_OF_PERICENTER":"42.4345","OBJECT_NAME":"STARLINK-1804","REV_AT_EPOCH":"11971","CENTER_NAME":"EARTH","OBJECT_ID":"2020-073AL","GP_ID":"220660885","TLE_LINE2":"2 46704  53.0554 114.1700 0002070  42.4345 317.6803 15.06397909119716","CLASSIFICATION_TYPE":"U","MEAN_MOTION_DDOT":"0.0000000000000","ELEMENT_SET_NO":"999","RA_OF_ASC_NODE":"114.1700","EPHEMERIS_TYPE":"0","SEMIMAJOR_AXIS":"6925.355","OBJECT_TYPE":"PAYLOAD","MEAN_MOTION_DOT":"0.00000972","FILE":"3705029","REF_FRAME":"TEME","PERIAPSIS":"545.786"},{"ARG_OF_PERICENTER":"56.2610","OBJECT_NAME":"STARLINK-1805","REV_AT_EPOCH":"11924","CENTER_NAME":"EARTH","OBJECT_ID":"2020-073AM","GP_ID":"220659652","TLE_LINE2":"2 46705  53.0557 148.5034 0001673  56.2610 303.8538 15.06394993119247","CLASSIFICATION_TYPE":"U","MEAN_MOTION_DDOT":"0.0000000000000","ELEMENT_SET_NO":"999","RA_OF_ASC_NODE":"148.5034","EPHEMERIS_TYPE":"0","SEMIMAJOR_AXIS":"6925.364","MEAN_MOTION_DOT":"0.00000555","OBJECT_TYPE":"PAYLOAD","FILE":"3705029","REF_FRAME":"TEME","PERIAPSIS":"546.070","EPOCH":"2022-12-16T21:06:57.056256","NORAD_CAT_ID":"46705","SITE":"AFETR","MEAN_ANOMALY":"303.8538","TIME_SYSTEM":"UTC","RCS_SIZE":"LARGE","COUNTRY_CODE":"US","MEAN_MOTION":"15.06394993","MEAN_ELEMENT_THEORY":"SGP4","LAUNCH_DATE":"2020-10-18","APOAPSIS":"548.388","INCLINATION":"53.0557","PERIOD":"95.592","DECAY_DATE":null,"BSTAR":"0.00005619100000","ECCENTRICITY":"0.00016730","TLE_LINE1":"1 46705U 20073AM  22350.87982704  .00000555  00000-0  56191-4 0  9992"},{"SEMIMAJOR_AXIS":"6925.393","OBJECT_TYPE":"PAYLOAD","MEAN_MOTION_DOT":"-0.00000673","EPHEMERIS_TYPE":"0","PERIAPSIS":"546.154","FILE":"3705029","REF_FRAME":"TEME","REV_AT_EPOCH":"11944","CENTER_NAME":"EARTH","GP_ID":"220659898","OBJECT_ID":"2020-073AN","TLE_LINE2":"2 46706  53.0527 133.9260 0001594  57.6483 302.4660 15.06385634119444","ARG_OF_PERICENTER":"57.6483","OBJECT_NAME":"STARLINK-1807","RA_OF_ASC_NODE":"133.9260","CLASSIFICATION_TYPE":"U","ELEMENT_SET_NO":"999","MEAN_MOTION_DDOT":"0.0000000000000","INCLINATION":"53.0527","MEAN_ELEMENT_THEORY":"SGP4","LAUNCH_DATE":"2020-10-18","APOAPSIS":"548.361","BSTAR":"-0.00002629200000","ECCENTRICITY":"0.00015940","TLE_LINE1":"1 46706U 20073AN  22350.78721996 -.00000673  00000-0 -26292-4 0  9999","PERIOD":"95.593","DECAY_DATE":null,"EPOCH":"2022-12-16T18:53:35.804544","SITE":"AFETR","NORAD_CAT_ID":"46706","MEAN_ANOMALY":"302.4660","TIME_SYSTEM":"UTC","RCS_SIZE":"LARGE","MEAN_MOTION":"15.06385634","COUNTRY_CODE":"US"},{"LAUNCH_DATE":"2020-10-18","MEAN_ELEMENT_THEORY":"SGP4","APOAPSIS":"548.060","INCLINATION":"53.0551","PERIOD":"95.592","DECAY_DATE":null,"ECCENTRICITY":"0.00012290","BSTAR":"-0.00006644900000","TLE_LINE1":"1 46707U 20073AP  22350.64530080 -.00001271  00000-0 -66449-4 0  9990","EPOCH":"2022-12-16T15:29:13.989120","RCS_SIZE":"LARGE","SITE":"AFETR","NORAD_CAT_ID":"46707","MEAN_ANOMALY":"279.3640","TIME_SYSTEM":"UTC","COUNTRY_CODE":"US","MEAN_MOTION":"15.06401546","EPHEMERIS_TYPE":"0","MEAN_MOTION_DOT":"-0.00001271","OBJECT_TYPE":"PAYLOAD","SEMIMAJOR_AXIS":"6925.344","FILE":"3705029","REF_FRAME":"TEME","PERIAPSIS":"546.358","ARG_OF_PERICENTER":"80.7488","OBJECT_NAME":"STARLINK-1808","CENTER_NAME":"EARTH","REV_AT_EPOCH":"11970","TLE_LINE2":"2 46707  53.0551 114.5666 0001229  80.7488 279.3640 15.06401546119704","OBJECT_ID":"2020-073AP","GP_ID":"220660650","MEAN_MOTION_DDOT":"0.0000000000000","ELEMENT_SET_NO":"999","CLASSIFICATION_TYPE":"U","RA_OF_ASC_NODE":"114.5666"},{"RCS_SIZE":"LARGE","NORAD_CAT_ID":"46709","SITE":"AFETR","MEAN_ANOMALY":"287.1644","TIME_SYSTEM":"UTC","EPOCH":"2022-12-16T20:29:50.440992","MEAN_MOTION":"15.06392644","COUNTRY_CODE":"US","INCLINATION":"53.0526","APOAPSIS":"548.221","MEAN_ELEMENT_THEORY":"SGP4","LAUNCH_DATE":"2020-10-18","TLE_LINE1":"1 46709U 20073AR  22350.85405603  .00003147  00000-0  23008-3 0  9992","ECCENTRICITY":"0.00014220","BSTAR":"0.00023008000000","DECAY_DATE":null,"PERIOD":"95.593","TLE_LINE2":"2 46709  53.0526 148.7483 0001422  72.9501 287.1644 15.06392644119235","GP_ID":"220660385","OBJECT_ID":"2020-073AR","CENTER_NAME":"EARTH","REV_AT_EPOCH":"11923","OBJECT_NAME":"STARLINK-1810","ARG_OF_PERICENTER":"72.9501","RA_OF_ASC_NODE":"148.7483","MEAN_MOTION_DDOT":"0.0000000000000","ELEMENT_SET_NO":"999","CLASSIFICATION_TYPE":"U","OBJECT_TYPE":"PAYLOAD","MEAN_MOTION_DOT":"0.00003147","SEMIMAJOR_AXIS":"6925.371","EPHEMERIS_TYPE":"0","PERIAPSIS":"546.251","REF_FRAME":"TEME","FILE":"3705029"},{"LAUNCH_DATE":"2020-10-18","MEAN_ELEMENT_THEORY":"SGP4","APOAPSIS":"548.314","INCLINATION":"53.0536","PERIOD":"95.593","DECAY_DATE":null,"BSTAR":"0.00008749700000","ECCENTRICITY":"0.00015330","TLE_LINE1":"1 46710U 20073AS  22350.87246388  .00001022  00000-0  87497-4 0  9992","EPOCH":"2022-12-16T20:56:20.879232","NORAD_CAT_ID":"46710","SITE":"AFETR","MEAN_ANOMALY":"297.5289","TIME_SYSTEM":"UTC","RCS_SIZE":"LARGE","COUNTRY_CODE":"US","MEAN_MOTION":"15.06387468","EPHEMERIS_TYPE":"0","SEMIMAJOR_AXIS":"6925.387","OBJECT_TYPE":"PAYLOAD","MEAN_MOTION_DOT":"0.00001022","FILE":"3705029","REF_FRAME":"TEME","PERIAPSIS":"546.190","OBJECT_NAME":"STARLINK-1811","ARG_OF_PERICENTER":"62.5855","REV_AT_EPOCH":"11924","CENTER_NAME":"EARTH","OBJECT_ID":"2020-073AS","GP_ID":"220659153","TLE_LINE2":"2 46710  53.0536 148.5432 0001533  62.5855 297.5289 15.06387468119249","CLASSIFICATION_TYPE":"U","ELEMENT_SET_NO":"999","MEAN_MOTION_DDOT":"0.0000000000000","RA_OF_ASC_NODE":"148.5432"},{"PERIOD":"95.593","DECAY_DATE":null,"ECCENTRICITY":"0.00015350","BSTAR":"0.00000030625000","TLE_LINE1":"1 46711U 20073AT  22350.77984551 -.00000277  00000-0  30625-6 0  9998","MEAN_ELEMENT_THEORY":"SGP4","LAUNCH_DATE":"2020-10-18","APOAPSIS":"548.323","INCLINATION":"53.0546","COUNTRY_CODE":"US","MEAN_MOTION":"15.06385021","EPOCH":"2022-12-16T18:42:58.652064","RCS_SIZE":"LARGE","MEAN_ANOMALY":"295.1025","SITE":"AFETR","NORAD_CAT_ID":"46711","TIME_SYSTEM":"UTC","FILE":"3705029","REF_FRAME":"TEME","PERIAPSIS":"546.196","EPHEMERIS_TYPE":"0","OBJECT_TYPE":"PAYLOAD","MEAN_MOTION_DOT":"-0.00000277","SEMIMAJOR_AXIS":"6925.394","ELEMENT_SET_NO":"999","MEAN_MOTION_DDOT":"0.0000000000000","CLASSIFICATION_TYPE":"U","RA_OF_ASC_NODE":"133.9526","ARG_OF_PERICENTER":"65.0123","OBJECT_NAME":"STARLINK-1813","CENTER_NAME":"EARTH","REV_AT_EPOCH":"11944","TLE_LINE2":"2 46711  53.0546 133.9526 0001535  65.0123 295.1025 15.06385021119448","OBJECT_ID":"2020-073AT","GP_ID":"220660398"},{"REF_FRAME":"TEME","FILE":"3705029","PERIAPSIS":"546.157","EPHEMERIS_TYPE":"0","SEMIMAJOR_AXIS":"6925.380","OBJECT_TYPE":"PAYLOAD","MEAN_MOTION_DOT":"0.00000337","CLASSIFICATION_TYPE":"U","MEAN_MOTION_DDOT":"0.0000000000000","ELEMENT_SET_NO":"999","RA_OF_ASC_NODE":"133.8805","ARG_OF_PERICENTER":"65.0079","OBJECT_NAME":"STARLINK-1814","GP_ID":"220660150","OBJECT_ID":"2020-073AU","TLE_LINE2":"2 46712  53.0563 133.8805 0001571  65.0079 295.1073 15.06389764119448","REV_AT_EPOCH":"11944","CENTER_NAME":"EARTH","DECAY_DATE":null,"PERIOD":"95.593","TLE_LINE1":"1 46712U 20073AU  22350.82409045  .00000337  00000-0  41553-4 0  9991","BSTAR":"0.00004155300000","ECCENTRICITY":"0.00015710","APOAPSIS":"548.333","MEAN_ELEMENT_THEORY":"SGP4","LAUNCH_DATE":"2020-10-18","INCLINATION":"53.0563","COUNTRY_CODE":"US","MEAN_MOTION":"15.06389764","SITE":"AFETR","NORAD_CAT_ID":"46712","MEAN_ANOMALY":"295.1073","TIME_SYSTEM":"UTC","RCS_SIZE":"LARGE","EPOCH":"2022-12-16T19:46:41.414880"}];
